IRIDIUM 64 [+]          
1 25287U 98021C   17248.46017082  .00000167  00000-0  52523-4 0  9999
2 25287  86.4010 190.4046 0002177  79.4745 280.6696 14.34218134 16502
IRIDIUM 65 [+]          
1 25288U 98021D   17248.46649122  .00000171  00000-0  54045-4 0  9992
2 25288  86.4008 190.3038 0002442  83.6553 276.4921 14.34218562 16520
IRIDIUM 66 [+]          
1 25289U 98021E   17248.33331812  .00000170  00000-0  53709-4 0  9998
2 25289  86.4007 190.2623 0002346  85.3980 274.7484 14.34218166 16496
IRIDIUM 67 [+]          
1 25290U 98021F   17248.40943383  .00000006  00000-0 -47462-5 0  9999
2 25290  86.4010 190.3679 0002298  83.8454 276.3004 14.34217721 16525
IRIDIUM 68 [+]          
1 25291U 98021G   17248.41577401  .00000171  00000-0  53902-4 0  9992
2 25291  86.4009 190.4854 0002289  82.6855 277.4600 14.34217981 16502
IRIDIUM 69 [-]          
1 25319U 98026A   17248.44462526  .00000166  00000-0  47581-4 0  9992
2 25319  86.4012 211.9466 0003295  53.9912 306.1591 14.38688017 14578
IRIDIUM 71 [-]          
1 25320U 98026B   17248.41184090  .00000148  00000-0  41380-4 0  9999
2 25320  86.4001 207.8148 0004350  84.2770 275.8924 14.39099918 15009
IRIDIUM 70 [+]          
1 25342U 98032A   17248.39342826  .00000015  00000-0 -17766-5 0  9996
2 25342  86.4013 190.7402 0002348  82.7491  31.2832 14.34217596 10597
IRIDIUM 72 [+]          
1 25343U 98032B   17248.35870973  .00000151  00000-0  46765-4 0  9992
2 25343  86.4009 190.3618 0002318  84.0713 276.0747 14.34217512 10599
IRIDIUM 73 [-]          
1 25344U 98032C   17248.31608084  .00000158  00000-0  36167-4 0  9993
2 25344  86.4482 169.1075 0002571  99.0112 261.1383 14.49055797 19159
IRIDIUM 75 [+]          
1 25346U 98032E   17248.36503723  .00000158  00000-0  49353-4 0  9995
2 25346  86.4011 190.6139 0002292  84.7735 275.3722 14.34217847 11168
IRIDIUM 3 [+]           
1 25431U 98048A   17248.44050196  .00000045  00000-0  88562-5 0  9998
2 25431  86.3965 222.1455 0002460  88.1250  22.2502 14.34214598997112
IRIDIUM 76 [+]          
1 25432U 98048B   17248.43820263 -.00000003  00000-0 -79979-5 0  9996
2 25432  86.3963 221.8982 0002183  89.8638 270.2808 14.34215362997093
IRIDIUM 82 [-]          
1 25467U 98051A   17248.29726628  .00002211  00000-0  16495-3 0  9995
2 25467  86.4051 343.9774 0185396 105.4760 256.7025 14.89397022998774
IRIDIUM 81 [+]          
1 25468U 98051B   17248.37267285  .00000186  00000-0  54270-4 0  9997
2 25468  86.4279 348.2876 0001986 103.0852 257.0568 14.38618603994379
IRIDIUM 80 [+]          
1 25469U 98051C   17248.33748550  .00000198  00000-0  63778-4 0  9999
2 25469  86.4008 348.5864 0002372  77.3015 313.4226 14.34219539994328
IRIDIUM 77 [-]          
1 25471U 98051E   17248.46248185  .01455469 -99286-6  89117-3 0  9996
2 25471  86.4052 347.2977 0317447 321.9362  35.9844 15.61599447999682
IRIDIUM 2 [-]           
1 25527U 98066A   17248.35515944  .00002945  00000-0  14828-3 0  9994
2 25527  85.5339 344.9265 0010473 144.4143 215.7797 15.16718771 30022
IRIDIUM 86 [+]          
1 25528U 98066B   17248.34695884  .00000191  00000-0  61176-4 0  9996
2 25528  86.3967 316.2872 0002455  95.2110 264.9366 14.34223771990857
IRIDIUM 84 [+]          
1 25530U 98066D   17248.23913558  .00000200  00000-0  64484-4 0  9994
2 25530  86.3969 316.4985 0002255  96.3658 263.7794 14.34223729988476
IRIDIUM 83 [+]          
1 25531U 98066E   17248.27084667  .00000185  00000-0  58862-4 0  9994
2 25531  86.3973 316.6139 0002211  94.7346 265.4102 14.34223610985831
IRIDIUM 20 [+]          
1 25577U 98074A   17248.46987429 -.00000021  00000-0 -14417-4 0  9991
2 25577  86.3963 221.8052 0002260  83.0658 277.0794 14.34214889979941
IRIDIUM 11 [+]          
1 25578U 98074B   17248.43427213 -.00000017  00000-0 -13232-4 0  9998
2 25578  86.3962 222.0209 0002270  80.5178  30.3960 14.34214343988904
IRIDIUM 14 [+]          
1 25777U 99032A   17248.38405122  .00000161  00000-0  50255-4 0  9997
2 25777  86.4010 190.4360 0002433  85.4483 274.6990 14.34218391966178
IRIDIUM 21 [+]          
1 25778U 99032B   17248.35235685  .00000170  00000-0  53664-4 0  9997
2 25778  86.4009 190.4669 0002166  86.3748 273.7695 14.34217838959603
IRIDIUM 91 [+]          
1 27372U 02005A   17248.49194049  .00000025  00000-0  17839-5 0  9990
2 27372  86.3925 253.5824 0002519 100.7355  61.3292 14.34219835823133
IRIDIUM 90 [S]          
1 27373U 02005B   17248.28608867  .00000234  00000-0  64060-4 0  9995
2 27373  86.4482 316.5952 0002438  96.8178 263.3300 14.42961298822907
IRIDIUM 94 [+]          
1 27374U 02005C   17248.45327302  .00000037  00000-0  62385-5 0  9997
2 27374  86.3962 222.1448 0002591 101.8432   8.9132 14.34214001827457
IRIDIUM 95 [+]          
1 27375U 02005D   17248.42885272 -.00000010  00000-0 -10710-4 0  9997
2 27375  86.3924 253.6292 0002094 111.7256 248.4163 14.34219212822419
IRIDIUM 96 [+]          
1 27376U 02005E   17248.47665862  .00000043  00000-0  82712-5 0  9990
2 27376  86.3962 285.6742 0001518 120.3599 239.7747 14.34220411827625
IRIDIUM 97 [+]          
1 27450U 02031A   17248.44494787  .00000024  00000-0  14036-5 0  9998
2 27450  86.3931 285.3348 0002065  83.7262 276.4169 14.34220430801731
IRIDIUM 98 [+]          
1 27451U 02031B   17248.35222295  .00000198  00000-0  63471-4 0  9990
2 27451  86.4001 348.6726 0002700  91.0293 343.0602 14.34219344802798
